CORVUS BC4              
1 43767U 18099K   22249.46763431  .00001873  00000+0  17197-3 0  9993
2 43767  97.6098 312.4916 0011384   4.5782 355.5542 14.95979471205087
MOVE-II                 
1 43780U 18099Y   22249.17496273  .00004271  00000+0  36388-3 0  9991
2 43780  97.6178 314.7502 0012468   3.5835 356.5474 14.98227002205140
SPACEBEE-7              
1 43816U 18099BL  22249.16915428  .00003018  00000+0  25983-3 0  9995
2 43816  97.6201 315.4737 0012527 348.1125  11.9799 14.98044855204730
SPACEBEE-5              
1 43817U 18099BM  22249.15717902  .00010949  00000+0  83366-3 0  9992
2 43817  97.6254 318.8940 0005408 347.1319  12.9767 15.02244586204887
SPACEBEE-6              
1 43818U 18099BN  22249.13263129  .00005858  00000+0  48443-3 0  9998
2 43818  97.6238 316.4798 0010723 350.9109   9.1918 14.99248281204922
SHIELDS 1               
1 43850U 18104B   22249.34372412  .00004033  00000+0  16444-3 0  9990
2 43850  85.0320 358.5239 0012758 336.0483  24.0165 15.24047643206827
STF-1                   
1 43852U 18104D   22249.25138767  .00013025  00000+0  47544-3 0  9991
2 43852  85.0341 358.6426 0011552 348.1502  11.9469 15.27940803206878
ZACUBE-2                
1 43907U 18111AH  22249.51115804  .00009562  00000+0  34233-3 0  9998
2 43907  97.1783 132.9402 0020506 146.4899 334.5932 15.28766841205672
LUME 1                  
1 43908U 18111AJ  22249.48907972  .00010457  00000+0  34280-3 0  9997
2 43908  97.1795 134.7692 0019234 139.4238 220.8442 15.31629338205791
AOBA VELOX-IV           
1 43940U 19003J   22249.09466485  .00029947  00000+0  72311-3 0  9991
2 43940  97.1210 282.7405 0015702 204.5839 155.4661 15.41008822202537
MOVE-IIB                
1 44398U 19038N   22249.56370404  .00012471  00000+0  57754-3 0  9992
2 44398  97.6332 219.7690 0019578 201.1827 158.8602 15.20082511175351
SONATE                  
1 44400U 19038Q   22249.56777664  .00004652  00000+0  24982-3 0  9994
2 44400  97.6445 218.5006 0022271 209.9253 150.0709 15.15215588175214
LUCKY-7                 
1 44406U 19038W   22248.92007565  .00006411  00000+0  33306-3 0  9990
2 44406  97.6459 218.4513 0021382 208.5007 151.5058 15.16255957175152
BEESAT 9                
1 44412U 19038AC  22249.36573428  .00007944  00000+0  39371-3 0  9992
2 44412  97.6423 219.3314 0018724 209.0352 150.9842 15.17876314174963
JAISAT-1                
1 44419U 19038F   22249.45803166  .00008322  00000+0  40687-3 0  9997
2 44419  97.6427 220.3246 0017835 205.3797 154.6563 15.18350564175343
DUCHIFAT-3              
1 44854U 19089C   22249.46667383  .00004554  00000+0  35107-3 0  9990
2 44854  36.9670 339.9074 0007596 165.8390 294.5744 15.01505331150119
EYESAT-NANO             
1 44877U 19092E   22249.44853381  .00011636  00000+0  48422-3 0  9995
2 44877  97.4652  73.3335 0012451  74.8336 285.4278 15.23846587150699
ORBITAL FACTORY 2 (OF-2)
1 45113U 19071C   22249.49319620  .00032841  00000+0  59931-3 0  9992
2 45113  51.6382  19.5467 0008161 109.2798 250.9073 15.49087001145927
M2 PATHFINDER           
1 45727U 20037E   22249.42882401  .00001501  00000+0  15263-3 0  9991
2 45727  97.7392  63.4440 0013352 124.5679 235.6847 14.92192235118905
NETSAT-4                
1 46504U 20068U   22249.49850863  .00002773  00000+0  20606-3 0  9992
2 46504  97.7271 189.1648 0013517  57.0008 303.2515 15.03775566106223
NETSAT-3                
1 46505U 20068V   22249.44973462  .00003415  00000+0  25318-3 0  9998
2 46505  97.7258 189.0271 0012338  60.4376 299.8082 15.03720978106222
NETSAT-1                
1 46506U 20068W   22249.46913591  .00001631  00000+0  12356-3 0  9994
2 46506  97.7275 188.9682 0011371  69.9290 290.3169 15.03651926106229
NETSAT-2                
1 46507U 20068X   22249.47969285  .00002106  00000+0  15829-3 0  9993
2 46507  97.7279 188.9705 0010942  77.4815 282.7634 15.03644275106175
SAI-1 NANOCONNECT-2     
1 47701U 21015C   22249.17931003  .00013936  00000+0  50019-3 0  9990
2 47701  97.4187 325.7775 0011598 162.0189 198.1463 15.28735267 84543
BEESAT-6                
1 47957U 21022AB  22249.50887792  .00006848  00000+0  43030-3 0  9992
2 47957  97.5167 147.5411 0018330 226.6993 260.4805 15.09433987 80028
SMOG-1                  
1 47964U 21022AJ  22249.19524209  .00008050  00000+0  48579-3 0  9996
2 47964  97.5208 148.4534 0016936 214.1119 145.9024 15.10872484 79074
MMSATS-1                
1 47976U 98067SJ  22249.59472490  .00033787  00000+0  37752-3 0  9996
2 47976  51.6399 276.4387 0002105   4.9230  73.9006 15.62428781 82932
BCCSAT-1                
1 48041U 21022AK  22249.16117247  .00006328  00000+0  39304-3 0  9992
2 48041  97.5207 147.9400 0013720 211.3182 148.7231 15.09949386 79012
BEESAT-5                
1 48083U 21022AM  22249.49183134  .00010119  00000+0  62995-3 0  9997
2 48083  97.5170 147.5342 0018724 225.2129 256.8150 15.09641008 79158
BEESAT-7                
1 48084U 21022AN  22249.56608890  .00008715  00000+0  54501-3 0  9990
2 48084  97.5195 147.6091 0018630 225.3047 255.2695 15.09518591 78756
BEESAT-8                
1 48085U 21022AP  22249.50598700  .00006843  00000+0  43053-3 0  9993
2 48085  97.5150 147.5409 0018322 225.9187 260.1744 15.09384741 79309
RAMSAT                  
1 48850U 98067SL  22249.45645343  .00186583  00000+0  74191-3 0  9993
2 48850  51.6331 259.8061 0006246  37.2915 322.8522 15.85573756 70117
BD-28                   
1 48867U 98067SN  22249.40028961  .00746335  29029-3  10216-2 0  9997
2 48867  51.6175 252.4277 0006403  47.1543 313.0007 16.05582137 68956
BINAR-1                 
1 49272U 98067SR  22249.46667818  .00281805  40205-4  92695-3 0  9992
2 49272  51.6256 262.7890 0005555  27.5086 332.6213 15.89996160 52464
HSU-SAT1                
1 53462U 98067UB  22249.52459396  .00032563  00000+0  53301-3 0  9995
2 53462  51.6409 293.3646 0005544 231.1876 128.8620 15.52182034  3917
FUTABA                  
1 53463U 98067UC  22249.52222239  .00037985  00000+0  61431-3 0  9996
2 53463  51.6407 293.3485 0005435 232.4651 127.5846 15.52443334  3910
TUMNANOSAT              
1 53464U 98067UD  22249.39110815  .00044616  00000+0  71343-3 0  9990
2 53464  51.6407 293.9731 0005331 234.0030 126.0467 15.52684523  3892
